STARLINK-3193           
1 49754U 21115AG  22060.25001157 -.00240162  00000+0 -67958-2 0  9993
2 49754  53.2175 261.3222 0006181 274.6345  10.5370 15.36709287 14873
STARLINK-3210           
1 49755U 21115AH  22059.91667824  .00009288  00000+0  60114-3 0  9992
2 49755  53.2163 267.1718 0002156  48.3364 242.8733 15.08824891  3622
STARLINK-3207           
1 49756U 21115AJ  22060.58334491  .00024364  00000+0  60022-3 0  9999
2 49756  53.2156 259.6748 0003818  12.4421  12.3006 15.40464107 14920
STARLINK-3197           
1 49757U 21115AK  22060.58334491  .00024820  00000+0  61140-3 0  9999
2 49757  53.2160 259.6724 0003524  14.2141  13.7147 15.40456590 14921
STARLINK-3194           
1 49758U 21115AL  22059.91667824  .00009213  00000+0  23355-3 0  9999
2 49758  53.2159 262.8211 0003642  13.7511 269.7238 15.40461871  3631
STARLINK-3204           
1 49759U 21115AM  22059.91667824 -.00019560  00000+0 -46671-3 0  9994
2 49759  53.2164 262.8192 0003384  15.5170 271.1399 15.40474091  3633
STARLINK-3199           
1 49760U 21115AN  22060.25001157 -.00019707  00000+0 -47034-3 0  9993
2 49760  53.2152 261.2522 0002905  16.5605 314.4217 15.40473571 14874
STARLINK-3203           
1 49761U 21115AP  22059.91667824  .00023027  00000+0  56837-3 0  9993
2 49761  53.2161 262.8221 0003243  17.2416 267.3358 15.40441491  3632
STARLINK-3195           
1 49762U 21115AQ  22059.91667824 -.00022309  00000+0 -53398-3 0  9997
2 49762  53.2161 262.8308 0002975  23.1562 256.1702 15.40471268  3632
STARLINK-3198           
1 49763U 21115AR  22060.25001157 -.00029936  00000+0 -72072-3 0  9991
2 49763  53.2155 261.2531 0002853  15.6401 316.4379 15.40467463 14870
STARLINK-3206           
1 49764U 21115AS  22060.25001157 -.00047216  00000+0 -11448-2 0  9992
2 49764  53.2151 261.2592 0002648  21.6454 305.1783 15.40473732 14871
STARLINK-3227           
1 49765U 21115AT  22060.25001157 -.00012040  00000+0 -28333-3 0  9992
2 49765  53.2155 261.2572 0002731  22.5760 307.3879 15.40466071 14875
STARLINK-3190           
1 49766U 21115AU  22059.91667824 -.00001442  00000+0 -25213-4 0  9992
2 49766  53.2156 262.8325 0003557  14.9189 261.2692 15.40460500  3631
STARLINK-3192           
1 49767U 21115AV  22059.91667824  .00009380  00000+0  23763-3 0  9997
2 49767  53.2159 262.8319 0003187  14.8462 263.4130 15.40459384  3639
STARLINK-3196           
1 49768U 21115AW  22059.91667824 -.00000998  00000+0 -14422-4 0  9999
2 49768  53.2154 262.8349 0003559  11.7217 262.3858 15.40457548  3630
STARLINK-3208           
1 49769U 21115AX  22060.25001157 -.00038015  00000+0 -91867-3 0  9998
2 49769  53.2153 261.2651 0004253   5.2461 319.4551 15.40466784 14874
STARLINK-3191           
1 49770U 21115AY  22059.91667824 -.00003465  00000+0 -74428-4 0  9996
2 49770  53.2154 262.8368 0003696  11.4391 261.5976 15.40456882  3638
STARLINK-3201           
1 49771U 21115AZ  22060.58334491  .00023819  00000+0  58737-3 0  9990
2 49771  53.2155 259.7002 0003002  15.3871 355.7687 15.40449729 14928
GLOBAL-12               
1 49772U 21115BA  22060.12792222  .00010345  00000+0  21621-3 0  9993
2 49772  53.2132 258.9765 0013150 197.9570 162.0975 15.46054922 13784
GLOBAL-13               
1 49773U 21115BB  22059.86622490  .00009787  00000+0  20475-3 0  9996
2 49773  53.2135 260.1903 0013002 198.6235 161.4299 15.46097996 13745
GSAT0223 (GALILEO 27)   
1 49809U 21116A   22059.58946716 -.00000085  00000+0  00000+0 0  9997
2 49809  57.1307  24.0326 0001726 264.8151 278.5969  1.70475443  1423
GSAT0224 (GALILEO 28)   
1 49810U 21116B   22059.10991431 -.00000082  00000+0  00000+0 0  9998
2 49810  57.1316  24.0436 0001476 287.8287  73.7651  1.70475410  1443
2021-117A               
1 49812U 21117A   22060.50963521  .00004937  00000+0  19965-3 0  9992
2 49812  97.3939 137.5075 0013132   7.3123 117.2027 15.25112412 12850
2021-117B               
1 49813U 21117B   22060.53448580  .00005333  00000+0  21812-3 0  9994
2 49813  97.3943 137.4707 0012137 358.2168 125.7679 15.24700864 12858
2021-117C               
1 49814U 21117C   22060.18256725  .00008336  00000+0  33339-3 0  9997
2 49814  97.3944 137.1676 0013157 359.5443  88.8324 15.25270794 12801
2021-117D               
1 49815U 21117D   22060.43937247  .00002607  00000+0  12060-3 0  9994
2 49815  97.3943 137.2996 0001755  81.8302  46.7748 15.21015333 12835
2021-117E               
1 49816U 21117E   22060.45237384  .00008045  00000+0  30895-3 0  9990
2 49816  97.3943 137.5881 0017054   8.7912 121.2536 15.26580784 12854
STPSAT-6                
1 49817U 21118A   22060.12595453 -.00000066  00000+0  00000+0 0  9997
2 49817   0.0177 131.9550 0000355 232.2537  88.4037  1.00269620   845
LDPE-1                  
1 49818U 21118B   22059.85047126 -.00000225  00000+0  00000+0 0  9992
2 49818   0.1754 109.5771 0001792 339.2326 322.0884  1.01235953   833
GLOBAL-17               
1 49949U 21120A   22059.80881416  .00012903  00000+0  26491-3 0  9994
2 49949  42.0124 251.0535 0003052 144.6388 215.4657 15.45845074 12652
GLOBAL-16               
1 49950U 21120B   22059.71285083  .00013030  00000+0  26166-3 0  9995
2 49950  42.0123 251.1857 0005073 131.6704 228.4573 15.46478726 12630
IXPE                    
1 49954U 21121A   22046.02635047  .00002251  00000+0  14715-3 0  9999
2 49954   0.2285 201.0830 0011445 295.4185 223.5884 14.90879525 10129
SHIJIAN-6 05A (SJ-6 05A)
1 49961U 21122A   22060.51766737  .00004486  00000+0  13711-3 0  9996
2 49961  97.3533  77.6506 0010856 339.7911  20.2901 15.34340427 12498
SHIJIAN-6 05B (SJ-6 05B)
1 49962U 21122B   22060.54770388  .00004362  00000+0  13338-3 0  9995
2 49962  97.3536  77.6795 0010971 339.6348 186.2738 15.34340164 12492
2021-123A               
1 50001U 21123A   22059.18959926 -.00000306  00000+0  00000+0 0  9990
2 50001   0.0841 289.7321 0558459 162.5664 274.0512  1.00642558   810
2021-123B               
1 50002U 21123B   22059.30170007 -.00000391  00000+0  00000+0 0  9994
2 50002   0.0869 292.7798 1378401 161.1228 281.8490  1.00093592   787
TIANLIAN 2-02           
1 50005U 21124A   22059.89526251 -.00000036  00000+0  00000+0 0  9994
2 50005   2.8163 283.9408 0002433  45.7848 322.2370  1.00272175   884
STARLINK-3317           
1 50156U 21125A   22060.25001157 -.00522202  00000+0 -13084-1 0  9990
2 50156  53.2174   9.0388 0001876  38.7378 204.3817 15.41567241 14238
STARLINK-3313           
1 50157U 21125B   22059.91667824 -.00662583  00000+0 -41908-1 0  9994
2 50157  53.2176  17.1956 0001969  32.7183   7.3770 15.10984032  3631
STARLINK-3309           
1 50158U 21125C   22059.91667824 -.00662498  00000+0 -41501-1 0  9999
2 50158  53.2175  17.1965 0001997  34.5976  63.4383 15.11329304 11483
STARLINK-3297           
1 50159U 21125D   22059.91667824 -.00662753  00000+0 -41385-1 0  9994
2 50159  53.2176  17.1967 0001962  36.5609  80.7203 15.11444584  3633
STARLINK-3288           
1 50160U 21125E   22059.91667824 -.00662483  00000+0 -41633-1 0  9992
2 50160  53.2175  17.1963 0002059  31.6770  47.0795 15.11214140 14090
STARLINK-3304           
1 50161U 21125F   22060.25001157 -.00665469  00000+0 -42515-1 0  9990
2 50161  53.2175  15.6959 0001956  35.7743  37.6948 15.10633721 14149
STARLINK-3303           
1 50162U 21125G   22059.91667824  .00067463  00000+0  31634-3 0  9991
2 50162  53.2183   5.3539 0005938  94.5287 167.4433 15.82578726  3724
STARLINK-3306           
1 50163U 21125H   22060.25001157 -.00301649  00000+0 -48554-2 0  9999
2 50163  53.2176   7.9010 0001791  32.8986  23.7141 15.53421058 14245
STARLINK-3307           
1 50164U 21125J   22060.25001157 -.00018067  00000+0 -12463-3 0  9990
2 50164  53.2169   5.7241 0003461   9.2715  70.8272 15.73178634 14276
STARLINK-3298           
1 50165U 21125K   22059.91667824 -.00662972  00000+0 -41266-1 0  9992
2 50165  53.2176  17.1969 0002051  35.9027 100.5897 15.11559879  3644
STARLINK-3305           
1 50166U 21125L   22060.25001157 -.00658380  00000+0 -17054-1 0  9999
2 50166  53.2174   8.3289 0001550  51.8562 111.9534 15.40720280 11634
STARLINK-3271           
1 50167U 21125M   22060.25001157 -.00662798  00000+0 -41528-1 0  9991
2 50167  53.2174  15.6971 0002014  39.7678 149.9006 15.11323230 14149
STARLINK-3296           
1 50168U 21125N   22060.25001157 -.00658184  00000+0 -16983-1 0  9993
2 50168  53.2174   8.3283 0001629  48.4932 125.8569 15.40835318 11631
STARLINK-3301           
1 50169U 21125P   22060.25001157 -.00659212  00000+0 -16495-1 0  9995
2 50169  53.2174   8.3211 0001547  52.7231 204.7249 15.41757229 11639
STARLINK-3245           
1 50170U 21125Q   22060.58334491 -.00664240  00000+0 -17285-1 0  9998
2 50170  53.2175   6.7531 0001428  59.5614 185.8020 15.40602744 14298
STARLINK-3286           
1 50171U 21125R   22060.25001157 -.00658479  00000+0 -17122-1 0  9990
2 50171  53.2174   8.3294 0001631  47.0560 106.1789 15.40605150 14247
STARLINK-3287           
1 50172U 21125S   22060.25001157 -.00658266  00000+0 -16725-1 0  9993
2 50172  53.2174   8.3252 0001856  39.7517 176.4198 15.41296063 14245
STARLINK-3289           
1 50173U 21125T   22060.25001157 -.00297155  00000+0 -44986-2 0  9991
2 50173  53.2174   7.6397 0005706 276.8881 321.9243 15.55050158 11641
STARLINK-3292           
1 50174U 21125U   22060.25001157 -.00659005  00000+0 -16553-1 0  9996
2 50174  53.2174   8.3222 0001647  47.7668 199.4132 15.41641937 14245
STARLINK-3291           
1 50175U 21125V   22060.25001157 -.00657971  00000+0 -16912-1 0  9996
2 50175  53.2174   8.3276 0001636  48.9619 135.8947 15.40950396 14241
STARLINK-3293           
1 50176U 21125W   22060.25001157 -.00658771  00000+0 -16610-1 0  9991
2 50176  53.2174   8.3232 0001862  39.0277 197.8502 15.41526661 11636
STARLINK-3282           
1 50177U 21125X   22060.25001157 -.00657982  00000+0 -16782-1 0  9995
2 50177  53.2174   8.3261 0001822  41.3842 164.3832 15.41180743 14241
STARLINK-3284           
1 50178U 21125Y   22059.91667824 -.00661050  00000+0 -17116-1 0  9999
2 50178  53.2176   9.8841 0001601  40.9570  49.6307 15.40741426  3691
